GLOBALSTAR M094         
1 39074U 13005C   24291.00254367 -.00000086  00000+0  10043-3 0  9992
2 39074  51.9947 202.5418 0001018  73.8180 286.2798 12.62269483541666
GLOBALSTAR M096         
1 39075U 13005D   24291.88675635 -.00000093  00000+0  59363-4 0  9991
2 39075  52.0062 248.1747 0000900  67.7392 292.3571 12.62271669541042
GLOBALSTAR M078         
1 39076U 13005E   24291.62248050  .00000063  00000+0  93302-3 0  9997
2 39076  51.9890 333.8182 0001044  26.9753 333.1167 12.62276491539492
GLOBALSTAR M095         
1 39077U 13005F   24291.57009172 -.00000056  00000+0  26656-3 0  9993
2 39077  51.9816 331.2979 0000908  60.3817 299.7140 12.62266422539499
